2026-052J               
1 68206U 26052J   26167.91375336  .00075225  23964-5  95859-3 0  9995
2 68206  97.3327 236.1268 0488922  69.4212 295.8740 14.82186185 13665
STARLINK-36986          
1 68207U 26053A   26167.61036375  .00011169  00000+0  34773-3 0  9996
2 68207  97.2851  42.6760 0001704  88.2240 271.9198 15.33449257 15374
STARLINK-37009          
1 68208U 26053B   26167.93390966  .00031442  00000+0  97146-3 0  9990
2 68208  97.2852  43.0007 0001652  98.8483 261.2946 15.33468496 15428
STARLINK-36948          
1 68209U 26053C   26167.93120005  .00013370  00000+0  41563-3 0  9998
2 68209  97.2856  43.0056 0001441  88.9819 271.1589 15.33452951 15406
STARLINK-37119          
1 68210U 26053D   26168.18950155  .00010663  00000+0  33210-3 0  9997
2 68210  97.2855  43.2660 0001377  98.8503 261.2895 15.33449731 15466
STARLINK-37120          
1 68211U 26053E   26167.92575984  .00013075  00000+0  40647-3 0  9994
2 68211  97.2860  43.0128 0001383  81.3414 278.7985 15.33456196 15405
STARLINK-37117          
1 68212U 26053F   26167.92305617  .00014294  00000+0  44397-3 0  9999
2 68212  97.2853  43.0168 0001598  93.4110 266.7316 15.33464474 15422
STARLINK-37116          
1 68213U 26053G   26167.92032318  .00012499  00000+0  38869-3 0  9997
2 68213  97.2850  43.0170 0001317  86.7452 273.3942 15.33456313 15428
STARLINK-35854          
1 68214U 26053H   26167.89041935  .00014176  00000+0  44059-3 0  9991
2 68214  97.2845  43.0520 0001678  90.3634 269.7800 15.33445551 15407
STARLINK-36272          
1 68215U 26053J   26167.65386480  .00012032  00000+0  37437-3 0  9994
2 68215  97.2847  42.7656 0001862 103.2659 256.8791 15.33449618 15361
STARLINK-37014          
1 68216U 26053K   26167.65114222  .00001893  00000+0  60964-4 0  9993
2 68216  97.2848  42.7730 0001685  94.5606 265.5830 15.33431338 15386
STARLINK-37011          
1 68217U 26053L   26167.64842735  .00011047  00000+0  34395-3 0  9990
2 68217  97.2853  42.7770 0001638  93.5908 266.5522 15.33449040 15387
STARLINK-37108          
1 68218U 26053M   26167.90672906  .00014777  00000+0  45906-3 0  9994
2 68218  97.2832  43.0375 0001812  95.4584 264.6865 15.33449782 15422
STARLINK-37106          
1 68219U 26053N   26168.09977507  .00020432  00000+0  63324-3 0  9990
2 68219  97.2856  43.2343 0001305  97.4651 262.6740 15.33458606 15458
STARLINK-37030          
1 68220U 26053P   26168.09433579  .00020179  00000+0  62535-3 0  9999
2 68220  97.2873  43.2400 0001280  98.1359 262.0029 15.33463200 15458
STARLINK-37012          
1 68221U 26053Q   26168.09705591  .00014821  00000+0  46043-3 0  9999
2 68221  97.2856  43.2389 0001124  84.9086 275.2285 15.33450807 15452
STARLINK-37110          
1 68222U 26053R   26168.09161865  .00014187  00000+0  44080-3 0  9994
2 68222  97.2872  43.2452 0001443  93.8933 266.2474 15.33455776 15456
STARLINK-37025          
1 68223U 26053S   26167.89313502  .00011944  00000+0  37161-3 0  9999
2 68223  97.2843  43.0564 0001872  90.3371 269.8087 15.33451378 15421
STARLINK-36960          
1 68225U 26053U   26167.56142086  .00014637  00000+0  45471-3 0  9997
2 68225  97.2848  42.7449 0001904  87.8867 272.2594 15.33453051 15356
STARLINK-37038          
1 68226U 26053V   26167.62123745  .00008409  00000+0  26250-3 0  9990
2 68226  97.2849  42.8143 0001875  98.8000 261.3456 15.33446142 15368
STARLINK-37083          
1 68227U 26053W   26167.62395782  .00022454  00000+0  69558-3 0  9997
2 68227  97.2850  42.8118 0001874  89.8499 270.2959 15.33452684 15358
STARLINK-37050          
1 68228U 26053X   26167.61851733  .00021473  00000+0  66534-3 0  9991
2 68228  97.2852  42.8188 0001732  99.8634 260.2804 15.33454701 15364
STARLINK-37081          
1 68229U 26053Y   26168.00002315  .00082289  00000+0  25275-2 0  9998
2 68229  97.2847  46.1592 0002100  94.9957  17.1740 15.33395356  5917
STARLINK-37100          
1 68230U 26053Z   26167.61580204  .00022181  00000+0  68720-3 0  9992
2 68230  97.2844  42.8236 0001805  81.4507 278.6941 15.33451532 15385
STARLINK-37104          
1 68231U 26053AA  26167.61308219  .00012205  00000+0  37976-3 0  9992
2 68231  97.2851  42.8259 0001751  96.0194 264.1248 15.33445095 15380
STARLINK-37027          
1 68232U 26054A   26167.76009823  .00015978  00000+0  48298-3 0  9998
2 68232  53.1563 189.2770 0001209 104.3082 255.8055 15.34402666 14260
STARLINK-37132          
1 68233U 26054B   26167.76898885  .00025864  00000+0  47108-3 0  9997
2 68233  53.1553 189.3797 0001122  91.4071 268.7066 15.49336888 14261
STARLINK-37101          
1 68234U 26054C   26167.36912513  .00027786  00000+0  50538-3 0  9995
2 68234  53.1568 194.0367 0000995  85.7379 274.3744 15.49336489 14160
STARLINK-36963          
1 68235U 26054D   26167.79166404  .00016269  00000+0  49154-3 0  9999
2 68235  53.1575 189.4735 0001247  90.7549 269.3596 15.34403521 14268
STARLINK-37127          
1 68236U 26054E   26167.34695965  .00031982  00000+0  58036-3 0  9998
2 68236  53.1574 193.8955 0001078  89.7865 270.3268 15.49327702 14161
