OBJECT_NAME,OBJECT_ID,EPOCH,MEAN_MOTION,ECCENTRICITY,INCLINATION,RA_OF_ASC_NODE,ARG_OF_PERICENTER,MEAN_ANOMALY,EPHEMERIS_TYPE,CLASSIFICATION_TYPE,NORAD_CAT_ID,ELEMENT_SET_NO,REV_AT_EPOCH,BSTAR,MEAN_MOTION_DOT,MEAN_MOTION_DDOT
2026-052J,2026-052J,2026-06-16T21:55:48.290304,14.82186185,.0488922,97.3327,236.1268,69.4212,295.8740,0,U,68206,999,1366,.95859E-3,.75225E-3,.23964E-5
STARLINK-36986,2026-053A,2026-06-16T14:38:55.428000,15.33449257,.0001704,97.2851,42.6760,88.2240,271.9198,0,U,68207,999,1537,.34773E-3,.11169E-3,0
STARLINK-37009,2026-053B,2026-06-16T22:24:49.794624,15.33468496,.0001652,97.2852,43.0007,98.8483,261.2946,0,U,68208,999,1542,.97146E-3,.31442E-3,0
STARLINK-36948,2026-053C,2026-06-16T22:20:55.684320,15.33452951,.0001441,97.2856,43.0056,88.9819,271.1589,0,U,68209,999,1540,.41563E-3,.1337E-3,0
STARLINK-37119,2026-053D,2026-06-17T04:32:52.933920,15.33449731,.0001377,97.2855,43.2660,98.8503,261.2895,0,U,68210,999,1546,.3321E-3,.10663E-3,0
STARLINK-37120,2026-053E,2026-06-16T22:13:05.650176,15.33456196,.0001383,97.2860,43.0128,81.3414,278.7985,0,U,68211,999,1540,.40647E-3,.13075E-3,0
STARLINK-37117,2026-053F,2026-06-16T22:09:12.053088,15.33464474,.0001598,97.2853,43.0168,93.4110,266.7316,0,U,68212,999,1542,.44397E-3,.14294E-3,0
STARLINK-37116,2026-053G,2026-06-16T22:05:15.922752,15.33456313,.0001317,97.2850,43.0170,86.7452,273.3942,0,U,68213,999,1542,.38869E-3,.12499E-3,0
STARLINK-35854,2026-053H,2026-06-16T21:22:12.231840,15.33445551,.0001678,97.2845,43.0520,90.3634,269.7800,0,U,68214,999,1540,.44059E-3,.14176E-3,0
STARLINK-36272,2026-053J,2026-06-16T15:41:33.918720,15.33449618,.0001862,97.2847,42.7656,103.2659,256.8791,0,U,68215,999,1536,.37437E-3,.12032E-3,0
STARLINK-37014,2026-053K,2026-06-16T15:37:38.687808,15.33431338,.0001685,97.2848,42.7730,94.5606,265.5830,0,U,68216,999,1538,.60964E-4,.1893E-4,0
STARLINK-37011,2026-053L,2026-06-16T15:33:44.123040,15.33449040,.0001638,97.2853,42.7770,93.5908,266.5522,0,U,68217,999,1538,.34395E-3,.11047E-3,0
STARLINK-37108,2026-053M,2026-06-16T21:45:41.390784,15.33449782,.0001812,97.2832,43.0375,95.4584,264.6865,0,U,68218,999,1542,.45906E-3,.14777E-3,0
STARLINK-37106,2026-053N,2026-06-17T02:23:40.566048,15.33458606,.0001305,97.2856,43.2343,97.4651,262.6740,0,U,68219,999,1545,.63324E-3,.20432E-3,0
STARLINK-37030,2026-053P,2026-06-17T02:15:50.612256,15.33463200,.000128,97.2873,43.2400,98.1359,262.0029,0,U,68220,999,1545,.62535E-3,.20179E-3,0
STARLINK-37012,2026-053Q,2026-06-17T02:19:45.630624,15.33450807,.0001124,97.2856,43.2389,84.9086,275.2285,0,U,68221,999,1545,.46043E-3,.14821E-3,0
STARLINK-37110,2026-053R,2026-06-17T02:11:55.851360,15.33455776,.0001443,97.2872,43.2452,93.8933,266.2474,0,U,68222,999,1545,.4408E-3,.14187E-3,0
STARLINK-37025,2026-053S,2026-06-16T21:26:06.865728,15.33451378,.0001872,97.2843,43.0564,90.3371,269.8087,0,U,68223,999,1542,.37161E-3,.11944E-3,0
STARLINK-36960,2026-053U,2026-06-16T13:28:26.762304,15.33453051,.0001904,97.2848,42.7449,87.8867,272.2594,0,U,68225,999,1535,.45471E-3,.14637E-3,0
STARLINK-37038,2026-053V,2026-06-16T14:54:34.915680,15.33446142,.0001875,97.2849,42.8143,98.8000,261.3456,0,U,68226,999,1536,.2625E-3,.8409E-4,0
STARLINK-37083,2026-053W,2026-06-16T14:58:29.955648,15.33452684,.0001874,97.2850,42.8118,89.8499,270.2959,0,U,68227,999,1535,.69558E-3,.22454E-3,0
STARLINK-37050,2026-053X,2026-06-16T14:50:39.897312,15.33454701,.0001732,97.2852,42.8188,99.8634,260.2804,0,U,68228,999,1536,.66534E-3,.21473E-3,0
STARLINK-37081,2026-053Y,2026-06-17T00:00:02.000160,15.33395356,.00021,97.2847,46.1592,94.9957,17.1740,0,U,68229,999,591,.25275E-2,.82289E-3,0
STARLINK-37100,2026-053Z,2026-06-16T14:46:45.296256,15.33451532,.0001805,97.2844,42.8236,81.4507,278.6941,0,U,68230,999,1538,.6872E-3,.22181E-3,0
STARLINK-37104,2026-053AA,2026-06-16T14:42:50.301216,15.33445095,.0001751,97.2851,42.8259,96.0194,264.1248,0,U,68231,999,1538,.37976E-3,.12205E-3,0
STARLINK-37027,2026-054A,2026-06-16T18:14:32.487072,15.34402666,.0001209,53.1563,189.2770,104.3082,255.8055,0,U,68232,999,1426,.48298E-3,.15978E-3,0
STARLINK-37132,2026-054B,2026-06-16T18:27:20.636640,15.49336888,.0001122,53.1553,189.3797,91.4071,268.7066,0,U,68233,999,1426,.47108E-3,.25864E-3,0
STARLINK-37101,2026-054C,2026-06-16T08:51:32.411232,15.49336489,.00009954,53.1568,194.0367,85.7379,274.3744,0,U,68234,999,1416,.50538089E-3,.27786E-3,0
STARLINK-36963,2026-054D,2026-06-16T18:59:59.773056,15.34403521,.0001247,53.1575,189.4735,90.7549,269.3596,0,U,68235,999,1426,.49154E-3,.16269E-3,0
STARLINK-37127,2026-054E,2026-06-16T08:19:37.313760,15.49327702,.00010786,53.1574,193.8955,89.7865,270.3268,0,U,68236,999,1416,.58035934E-3,.31982E-3,0
